{"type": "FeatureCollection", "features": [ {"type": "Feature", "properties": {"norad_id": 58662, "name": "TIANMU-1 21", "group": "weather", "lat": 7.076380571078115, "lon": -69.47428700690499, "alt_km": 469.8965298508947, "timestamp": "2025-12-22T04:03:38.804435+00:00", "meta": {"OBJECT_NAME": "TIANMU-1 21", "OBJECT_ID": "2023-208C", "EPOCH": "2025-12-21T21:02:13.596864", "MEAN_MOTION": 15.31731934, "ECCENTRICITY": 0.0006265, "INCLINATION": 97.4382, "RA_OF_ASC_NODE": 109.3027, "ARG_OF_PERICENTER": 221.913, "MEAN_ANOMALY": 138.1632, "EPHEMERIS_TYPE": 0, "CLASSIFICATION_TYPE": "U", "NORAD_CAT_ID": 58662, "ELEMENT_SET_NO": 999, "REV_AT_EPOCH": 11039, "BSTAR": 0.00032555, "MEAN_MOTION_DOT": 9.904e-05, "MEAN_MOTION_DDOT": 0}, "tle": {"line1": "1 58662U 23208C   25355.87654626  .00009904  00000+0  32555-3 0  9990", "line2": "2 58662  97.4382 109.3027 0006265 221.9130 138.1632 15.31731934110396"}}, "geometry": {"type": "Point", "coordinates": [-69.47428700690499, 7.076380571078115]}}, {"type": "Feature", "properties": {"norad_id": 58663, "name": "TIANMU-1 22", "group": "weather", "lat": -39.093773625669456, "lon": 113.33749550085618, "alt_km": 488.8431200543282, "timestamp": "2025-12-22T04:03:38.804451+00:00", "meta": {"OBJECT_NAME": "TIANMU-1 22", "OBJECT_ID": "2023-208D", "EPOCH": "2025-12-21T20:22:24.902976", "MEAN_MOTION": 15.27746413, "ECCENTRICITY": 0.0002816, "INCLINATION": 97.4389, "RA_OF_ASC_NODE": 106.9239, "ARG_OF_PERICENTER": 238.7837, "MEAN_ANOMALY": 121.3126, "EPHEMERIS_TYPE": 0, "CLASSIFICATION_TYPE": "U", "NORAD_CAT_ID": 58663, "ELEMENT_SET_NO": 999, "REV_AT_EPOCH": 11022, "BSTAR": 0.00028427, "MEAN_MOTION_DOT": 7.632e-05, "MEAN_MOTION_DDOT": 0}, "tle": {"line1": "1 58663U 23208D   25355.84889934  .00007632  00000+0  28427-3 0  9999", "line2": "2 58663  97.4389 106.9239 0002816 238.7837 121.3126 15.27746413110227"}}, "geometry": {"type": "Point", "coordinates": [113.33749550085618, -39.093773625669456]}}, {"type": "Feature", "properties": {"norad_id": 58700, "name": "TIANMU-1 15", "group": "weather", "lat": -18.54033898284327, "lon": -179.87738305197698, "alt_km": 497.4561212312392, "timestamp": "2025-12-22T04:03:38.804467+00:00", "meta": {"OBJECT_NAME": "TIANMU-1 15", "OBJECT_ID": "2024-004A", "EPOCH": "2025-12-21T20:15:58.581792", "MEAN_MOTION": 15.24517079, "ECCENTRICITY": 0.0005987, "INCLINATION": 97.4622, "RA_OF_ASC_NODE": 177.2797, "ARG_OF_PERICENTER": 251.3944, "MEAN_ANOMALY": 108.6643, "EPHEMERIS_TYPE": 0, "CLASSIFICATION_TYPE": "U", "NORAD_CAT_ID": 58700, "ELEMENT_SET_NO": 999, "REV_AT_EPOCH": 10873, "BSTAR": 0.00023615, "MEAN_MOTION_DOT": 5.738e-05, "MEAN_MOTION_DDOT": 0}, "tle": {"line1": "1 58700U 24004A   25355.84442803  .00005738  00000+0  23615-3 0  9995", "line2": "2 58700  97.4622 177.2797 0005987 251.3944 108.6643 15.24517079108737"}}, "geometry": {"type": "Point", "coordinates": [-179.87738305197698, -18.54033898284327]}}, {"type": "Feature", "properties": {"norad_id": 58701, "name": "TIANMU-1 16", "group": "weather", "lat": 62.76599037657257, "lon": 162.24274684413956, "alt_km": 488.9995522326426, "timestamp": "2025-12-22T04:03:38.804483+00:00", "meta": {"OBJECT_NAME": "TIANMU-1 16", "OBJECT_ID": "2024-004B", "EPOCH": "2025-12-21T19:54:20.940192", "MEAN_MOTION": 15.245444, "ECCENTRICITY": 0.0004345, "INCLINATION": 97.4561, "RA_OF_ASC_NODE": 176.6461, "ARG_OF_PERICENTER": 254.6034, "MEAN_ANOMALY": 105.4724, "EPHEMERIS_TYPE": 0, "CLASSIFICATION_TYPE": "U", "NORAD_CAT_ID": 58701, "ELEMENT_SET_NO": 999, "REV_AT_EPOCH": 10873, "BSTAR": 0.00022921, "MEAN_MOTION_DOT": 5.571e-05, "MEAN_MOTION_DDOT": 0}, "tle": {"line1": "1 58701U 24004B   25355.82940903  .00005571  00000+0  22921-3 0  9992", "line2": "2 58701  97.4561 176.6461 0004345 254.6034 105.4724 15.24544400108737"}}, "geometry": {"type": "Point", "coordinates": [162.24274684413956, 62.76599037657257]}}, {"type": "Feature", "properties": {"norad_id": 58702, "name": "TIANMU-1 17", "group": "weather", "lat": 29.899904561030077, "lon": 1.720121074331867, "alt_km": 491.21126420455585, "timestamp": "2025-12-22T04:03:38.804501+00:00", "meta": {"OBJECT_NAME": "TIANMU-1 17", "OBJECT_ID": "2024-004C", "EPOCH": "2025-12-21T21:06:18.262656", "MEAN_MOTION": 15.24588465, "ECCENTRICITY": 0.0003514, "INCLINATION": 97.4596, "RA_OF_ASC_NODE": 177.1106, "ARG_OF_PERICENTER": 255.8506, "MEAN_ANOMALY": 104.2341, "EPHEMERIS_TYPE": 0, "CLASSIFICATION_TYPE": "U", "NORAD_CAT_ID": 58702, "ELEMENT_SET_NO": 999, "REV_AT_EPOCH": 10873, "BSTAR": 0.00023461, "MEAN_MOTION_DOT": 5.711e-05, "MEAN_MOTION_DDOT": 0}, "tle": {"line1": "1 58702U 24004C   25355.87937804  .00005711  00000+0  23461-3 0  9990", "line2": "2 58702  97.4596 177.1106 0003514 255.8506 104.2341 15.24588465108733"}}, "geometry": {"type": "Point", "coordinates": [1.720121074331867, 29.899904561030077]}}, {"type": "Feature", "properties": {"norad_id": 58703, "name": "TIANMU-1 18", "group": "weather", "lat": -59.98749356333448, "lon": -15.51719546752781, "alt_km": 497.29826788027003, "timestamp": "2025-12-22T04:03:38.804518+00:00", "meta": {"OBJECT_NAME": "TIANMU-1 18", "OBJECT_ID": "2024-004D", "EPOCH": "2025-12-21T20:42:24.173856", "MEAN_MOTION": 15.24572611, "ECCENTRICITY": 0.0002875, "INCLINATION": 97.4613, "RA_OF_ASC_NODE": 177.2913, "ARG_OF_PERICENTER": 253.3432, "MEAN_ANOMALY": 106.749, "EPHEMERIS_TYPE": 0, "CLASSIFICATION_TYPE": "U", "NORAD_CAT_ID": 58703, "ELEMENT_SET_NO": 999, "REV_AT_EPOCH": 10873, "BSTAR": 0.00023771, "MEAN_MOTION_DOT": 5.785e-05, "MEAN_MOTION_DDOT": 0}, "tle": {"line1": "1 58703U 24004D   25355.86277979  .00005785  00000+0  23771-3 0  9995", "line2": "2 58703  97.4613 177.2913 0002875 253.3432 106.7490 15.24572611108739"}}, "geometry": {"type": "Point", "coordinates": [-15.51719546752781, -59.98749356333448]}}, {"type": "Feature", "properties": {"norad_id": 58990, "name": "INSAT-3DS", "group": "weather", "lat": 0.01727064467087659, "lon": -126.01844658398868, "alt_km": 35782.38806026804, "timestamp": "2025-12-22T04:03:38.804539+00:00", "meta": {"OBJECT_NAME": "INSAT-3DS", "OBJECT_ID": "2024-033A", "EPOCH": "2025-12-21T18:43:24.431232", "MEAN_MOTION": 1.00271991, "ECCENTRICITY": 0.0001121, "INCLINATION": 0.0546, "RA_OF_ASC_NODE": 101.6092, "ARG_OF_PERICENTER": 172.1583, "MEAN_ANOMALY": 179.7862, "EPHEMERIS_TYPE": 0, "CLASSIFICATION_TYPE": "U", "NORAD_CAT_ID": 58990, "ELEMENT_SET_NO": 999, "REV_AT_EPOCH": 4529, "BSTAR": 0, "MEAN_MOTION_DOT": -1.34e-06, "MEAN_MOTION_DDOT": 0}, "tle": {"line1": "1 58990U 24033A   25355.78014388 -.00000134  00000+0  00000+0 0  9999", "line2": "2 58990   0.0546 101.6092 0001121 172.1583 179.7862  1.00271991 45299"}}, "geometry": {"type": "Point", "coordinates": [-126.01844658398868, 0.01727064467087659]}}, {"type": "Feature", "properties": {"norad_id": 59051, "name": "METEOR-M2 4", "group": "weather", "lat": -14.613455341749978, "lon": 130.64856077342486, "alt_km": 825.2390808316186, "timestamp": "2025-12-22T04:03:38.804610+00:00", "meta": {"OBJECT_NAME": "METEOR-M2 4", "OBJECT_ID": "2024-039A", "EPOCH": "2025-12-21T20:23:42.141120", "MEAN_MOTION": 14.22402544, "ECCENTRICITY": 0.0006566, "INCLINATION": 98.678, "RA_OF_ASC_NODE": 312.6163, "ARG_OF_PERICENTER": 331.4275, "MEAN_ANOMALY": 28.6542, "EPHEMERIS_TYPE": 0, "CLASSIFICATION_TYPE": "U", "NORAD_CAT_ID": 59051, "ELEMENT_SET_NO": 999, "REV_AT_EPOCH": 9405, "BSTAR": 2.1498e-05, "MEAN_MOTION_DOT": 4e-08, "MEAN_MOTION_DDOT": 0}, "tle": {"line1": "1 59051U 24039A   25355.84979330  .00000004  00000+0  21498-4 0  9992", "line2": "2 59051  98.6780 312.6163 0006566 331.4275  28.6542 14.22402544 94053"}}, "geometry": {"type": "Point", "coordinates": [130.64856077342486, -14.613455341749978]}}, {"type": "Feature", "properties": {"norad_id": 60133, "name": "GOES 19", "group": "weather", "lat": -0.007052891765787089, "lon": 76.70858612458227, "alt_km": 35787.11792573723, "timestamp": "2025-12-22T04:03:38.804634+00:00", "meta": {"OBJECT_NAME": "GOES 19", "OBJECT_ID": "2024-119A", "EPOCH": "2025-12-21T17:58:20.322048", "MEAN_MOTION": 1.00273318, "ECCENTRICITY": 9.98e-05, "INCLINATION": 0.0065, "RA_OF_ASC_NODE": 127.0729, "ARG_OF_PERICENTER": 200.0746, "MEAN_ANOMALY": 317.8144, "EPHEMERIS_TYPE": 0, "CLASSIFICATION_TYPE": "U", "NORAD_CAT_ID": 60133, "ELEMENT_SET_NO": 999, "REV_AT_EPOCH": 518, "BSTAR": 0, "MEAN_MOTION_DOT": -2.26e-06, "MEAN_MOTION_DDOT": 0}, "tle": {"line1": "1 60133U 24119A   25355.74884632 -.00000226  00000+0  00000+0 0  9991", "line2": "2 60133   0.0065 127.0729 0000998 200.0746 317.8144  1.00273318  5186"}}, "geometry": {"type": "Point", "coordinates": [76.70858612458227, -0.007052891765787089]}}, {"type": "Feature", "properties": {"norad_id": 65815, "name": "FENGYUN 3H", "group": "weather", "lat": -11.004116590513592, "lon": -62.74653711155999, "alt_km": 830.1365308425229, "timestamp": "2025-12-22T04:03:38.804652+00:00", "meta": {"OBJECT_NAME": "FENGYUN 3H", "OBJECT_ID": "2025-219A", "EPOCH": "2025-12-21T19:39:25.384320", "MEAN_MOTION": 14.19906859, "ECCENTRICITY": 7.57e-05, "INCLINATION": 98.6598, "RA_OF_ASC_NODE": 295.2127, "ARG_OF_PERICENTER": 105.6382, "MEAN_ANOMALY": 254.4878, "EPHEMERIS_TYPE": 0, "CLASSIFICATION_TYPE": "U", "NORAD_CAT_ID": 65815, "ELEMENT_SET_NO": 999, "REV_AT_EPOCH": 1221, "BSTAR": 4.1011e-05, "MEAN_MOTION_DOT": 4.4e-07, "MEAN_MOTION_DDOT": 0}, "tle": {"line1": "1 65815U 25219A   25355.81904380  .00000044  00000+0  41011-4 0  9995", "line2": "2 65815  98.6598 295.2127 0000757 105.6382 254.4878 14.19906859 12210"}}, "geometry": {"type": "Point", "coordinates": [-62.74653711155999, -11.004116590513592]}}]}